NORAD_CAT_ID,OBJECT_NAME,OBJECT_TYPE,EPOCH,MEAN_MOTION,ECCENTRICITY,INCLINATION,RA_OF_ASC_NODE,ARG_OF_PERICENTER,MEAN_ANOMALY,BSTAR,MEAN_MOTION_DOT,MEAN_MOTION_DDOT,TLE_LINE0,TLE_LINE1,TLE_LINE2,SEMIMAJOR_AXIS,PERIOD,APOGEE,PERIGEE,DECAYED
55303.0,STARLINK-5322,PAYLOAD,2023-05-04 06:06:57,14.98329837,0.000332,69.9977,147.5638,266.7265,93.3514,-4.1911e-05,-5.93e-06,0.0,0 STARLINK-5322,1 55303U 23010AL  23124.25482675 -.00000593  00000-0 -41911-4 0  9992,2 55303  69.9977 147.5638 0003320 266.7265  93.3514 14.98329837 16636,6950.193,96.107,574.366,569.751,0.0
55303.0,STARLINK-5322,PAYLOAD,2023-05-04 10:55:21,14.98330481,0.0003239,69.9979,147.0588,265.6055,94.4734,-3.6284e-05,-5.26e-06,0.0,0 STARLINK-5322,1 55303U 23010AL  23124.45510612 -.00000526  00000-0 -36284-4 0  9990,2 55303  69.9979 147.0588 0003239 265.6055  94.4734 14.98330481 16960,6950.191,96.107,574.308,569.805,0.0
55303.0,STARLINK-5322,PAYLOAD,2023-05-04 18:56:01,14.98329,0.0002974,69.9988,146.2165,263.3458,96.7363,-4.9366e-06,-1.52e-06,0.0,0 STARLINK-5322,1 55303U 23010AL  23124.78890665 -.00000152  00000-0 -49366-5 0  9996,2 55303  69.9988 146.2165 0002974 263.3458  96.7363 14.98329000 17014,6950.196,96.107,574.128,569.994,0.0
55303.0,STARLINK-5322,PAYLOAD,2023-05-05 09:21:13,14.98330976,0.0003345,69.9977,144.7021,266.5244,93.5533,6.0404e-05,6.28e-06,0.0,0 STARLINK-5322,1 55303U 23010AL  23125.38974233  .00000628  00000-0  60404-4 0  9998,2 55303  69.9977 144.7021 0003345 266.5244  93.5533 14.98330976 16801,6950.19,96.107,574.38,569.73,0.0
55303.0,STARLINK-5322,PAYLOAD,2023-05-05 18:58:02,14.98327389,0.0003333,69.9977,143.6919,269.8852,90.1925,5.8992e-05,6.11e-06,0.0,0 STARLINK-5322,1 55303U 23010AL  23125.79030475  .00000611  00000-0  58992-4 0  9995,2 55303  69.9977 143.6919 0003333 269.8852  90.1925 14.98327389 17165,6950.201,96.107,574.382,569.749,0.0
55303.0,STARLINK-5322,PAYLOAD,2023-05-06 10:59:23,14.9832895,0.0003446,69.9979,142.009,267.8786,92.1978,3.2462e-06,-5.4e-07,0.0,0 STARLINK-5322,1 55303U 23010AL  23126.45790537 -.00000054  00000-0  32462-5 0  9998,2 55303  69.9979 142.0090 0003446 267.8786  92.1978 14.98328950 17265,6950.196,96.107,574.456,569.666,0.0
55303.0,STARLINK-5322,PAYLOAD,2023-05-07 01:24:35,14.98333559,0.0003423,69.9981,140.494,268.0343,92.0424,1.0459e-05,3.2e-07,0.0,0 STARLINK-5322,1 55303U 23010AL  23127.05874169  .00000032  00000-0  10459-4 0  9995,2 55303  69.9981 140.4940 0003423 268.0343  92.0424 14.98333559 17054,6950.182,96.107,574.426,569.668,0.0
55303.0,STARLINK-5322,PAYLOAD,2023-05-07 11:01:23,14.98334922,0.0003427,69.9986,139.4845,269.5722,90.5044,1.6521e-05,1.04e-06,0.0,0 STARLINK-5322,1 55303U 23010AL  23127.45929983  .00000104  00000-0  16521-4 0  9990,2 55303  69.9986 139.4845 0003427 269.5722  90.5044 14.98334922 17418,6950.178,96.107,574.424,569.661,0.0
55303.0,STARLINK-5322,PAYLOAD,2023-05-08 04:38:52,14.98327471,0.0003396,69.9991,137.6332,270.3495,89.7275,4.4025e-06,-4.1e-07,0.0,0 STARLINK-5322,1 55303U 23010AL  23128.19366443 -.00000041  00000-0  44025-5 0  9990,2 55303  69.9991 137.6332 0003396 270.3495  89.7275 14.98327471 17223,6950.201,96.107,574.426,569.705,0.0
55303.0,STARLINK-5322,PAYLOAD,2023-05-08 17:27:57,14.98329715,0.0003326,69.9992,136.2861,271.0296,89.0481,-1.4078e-05,-2.61e-06,0.0,0 STARLINK-5322,1 55303U 23010AL  23128.72774393 -.00000261  00000-0 -14078-4 0  9995,2 55303  69.9992 136.2861 0003326 271.0296  89.0481 14.98329715 17603,6950.194,96.107,574.37,569.747,0.0
55303.0,STARLINK-5322,PAYLOAD,2023-05-09 04:40:53,14.98331718,0.0003329,69.9992,135.1081,269.0257,91.0521,-9.8755e-06,-2.11e-06,0.0,0 STARLINK-5322,1 55303U 23010AL  23129.19506198 -.00000211  00000-0 -98755-5 0  9993,2 55303  69.9992 135.1081 0003329 269.0257  91.0521 14.98331718 17370,6950.188,96.107,574.366,569.739,0.0
55303.0,STARLINK-5322,PAYLOAD,2023-05-09 09:29:17,14.98331772,0.0003329,69.9992,134.6032,268.6972,91.3806,-8.1836e-06,-1.91e-06,0.0,0 STARLINK-5322,1 55303U 23010AL  23129.39534162 -.00000191  00000-0 -81836-5 0  9996,2 55303  69.9992 134.6032 0003329 268.6972  91.3806 14.98331772 17705,6950.187,96.107,574.366,569.739,0.0
55303.0,STARLINK-5322,PAYLOAD,2023-05-10 09:31:18,14.98328617,0.0003361,69.999,132.0783,269.3142,90.7632,1.4062e-05,7.5e-07,0.0,0 STARLINK-5322,1 55303U 23010AL  23130.39674332  .00000075  00000-0  14062-4 0  9997,2 55303  69.9990 132.0783 0003361 269.3142  90.7632 14.98328617 17851,6950.197,96.107,574.398,569.726,0.0
55303.0,STARLINK-5322,PAYLOAD,2023-05-10 17:31:58,14.98328684,0.0003382,69.9989,131.2365,269.619,90.4581,1.4018e-05,7.4e-07,0.0,0 STARLINK-5322,1 55303U 23010AL  23130.73054340  .00000074  00000-0  14018-4 0  9996,2 55303  69.9989 131.2365 0003382 269.6190  90.4581 14.98328684 17905,6950.197,96.107,574.413,569.711,0.0
55303.0,STARLINK-5322,PAYLOAD,2023-05-11 09:33:19,14.98330672,0.0003373,69.9989,129.5533,269.3789,90.6984,4.2655e-06,-4.2e-07,0.0,0 STARLINK-5322,1 55303U 23010AL  23131.39814263 -.00000042  00000-0  42655-5 0  9992,2 55303  69.9989 129.5533 0003373 269.3789  90.6984 14.98330672 18004,6950.191,96.107,574.4,569.712,0.0
55303.0,STARLINK-5322,PAYLOAD,2023-05-11 17:33:59,14.9832921,0.0003367,69.9989,128.7115,269.4179,90.6594,1.0396e-05,3.1e-07,0.0,0 STARLINK-5322,1 55303U 23010AL  23131.73194334  .00000031  00000-0  10396-4 0  9993,2 55303  69.9989 128.7115 0003367 269.4179  90.6594 14.98329210 18056,6950.195,96.107,574.4,569.72,0.0
55303.0,STARLINK-5322,PAYLOAD,2023-05-12 04:46:56,14.98328392,0.0003382,69.9988,127.5333,269.2733,90.8039,1.5487e-05,9.2e-07,0.0,0 STARLINK-5322,1 55303U 23010AL  23132.19926389  .00000092  00000-0  15487-4 0  9990,2 55303  69.9988 127.5333 0003382 269.2733  90.8039 14.98328392 18129,6950.198,96.107,574.413,569.712,0.0
55303.0,STARLINK-5322,PAYLOAD,2023-05-12 07:59:12,14.98328211,0.0003381,69.9988,127.1964,269.104,90.9732,4.6718e-05,4.64e-06,0.0,0 STARLINK-5322,1 55303U 23010AL  23132.33278323  .00000464  00000-0  46718-4 0  9998,2 55303  69.9988 127.1964 0003381 269.1040  90.9732 14.98328211 18147,6950.198,96.107,574.413,569.714,0.0
55303.0,STARLINK-5322,PAYLOAD,2023-05-13 00:00:32,14.98322618,0.0003406,69.9997,125.5155,266.7556,93.3213,0.00019997,2.293e-05,0.0,0 STARLINK-5322,1 55303U 23010AL  23133.00038168  .00002293  00000-0  19997-3 0  9994,2 55303  69.9997 125.5155 0003406 266.7556  93.3213 14.98322618 17947,6950.216,96.107,574.448,569.713,0.0
55303.0,STARLINK-5322,PAYLOAD,2023-05-13 09:37:21,14.98333133,0.0003326,69.999,124.5035,269.2036,90.8742,3.6372e-05,3.41e-06,0.0,0 STARLINK-5322,1 55303U 23010AL  23133.40093940  .00000341  00000-0  36372-4 0  9996,2 55303  69.9990 124.5035 0003326 269.2036  90.8742 14.98333133 18302,6950.183,96.107,574.36,569.737,0.0
55303.0,STARLINK-5322,PAYLOAD,2023-05-13 16:01:53,14.98329668,0.0003252,69.9993,123.8299,270.0946,89.9841,9.4387e-06,2e-07,0.0,0 STARLINK-5322,1 55303U 23010AL  23133.66798215  .00000020  00000-0  94387-5 0  9996,2 55303  69.9993 123.8299 0003252 270.0946  89.9841 14.98329668 18348,6950.194,96.107,574.319,569.799,0.0
55303.0,STARLINK-5322,PAYLOAD,2023-05-14 08:03:13,14.98386617,0.0002785,69.9993,122.1474,275.2643,84.8198,-0.001015,-0.000122,0.0,0 STARLINK-5322,1 55303U 23010AL  23134.33557253 -.00012200  00000-0 -10150-2 0  9994,2 55303  69.9993 122.1474 0002785 275.2643  84.8198 14.98386617 18140,6950.018,96.103,573.818,569.947,0.0
55303.0,STARLINK-5322,PAYLOAD,2023-05-14 09:39:21,14.98391279,0.0002889,69.9993,121.9791,276.1558,83.9272,-0.0011072,-0.000133,0.0,0 STARLINK-5322,1 55303U 23010AL  23134.40232963 -.00013300  00000-0 -11072-2 0  9996,2 55303  69.9993 121.9791 0002889 276.1558  83.9272 14.98391279 18456,6950.003,96.103,573.876,569.861,0.0
55303.0,STARLINK-5322,PAYLOAD,2023-05-14 16:03:54,14.98329768,0.0003176,69.9993,121.3059,267.0797,92.9998,-1.5999e-05,-2.84e-06,0.0,0 STARLINK-5322,1 55303U 23010AL  23134.66938340 -.00000284  00000-0 -15999-4 0  9997,2 55303  69.9993 121.3059 0003176 267.0797  92.9998 14.98329768 18494,6950.194,96.107,574.266,569.851,0.0
55303.0,STARLINK-5322,PAYLOAD,2023-05-15 00:04:34,14.98333334,0.0003216,69.9992,120.4641,267.5842,92.4949,1.285e-05,6e-07,0.0,0 STARLINK-5322,1 55303U 23010AL  23135.00317985  .00000060  00000-0  12850-4 0  9995,2 55303  69.9992 120.4641 0003216 267.5842  92.4949 14.98333334 18249,6950.183,96.107,574.283,569.812,0.0
55303.0,STARLINK-5322,PAYLOAD,2023-05-15 09:41:22,14.98334257,0.0003197,69.9993,119.4539,268.643,91.4362,2.4542e-05,2e-06,0.0,0 STARLINK-5322,1 55303U 23010AL  23135.40373819  .00000200  00000-0  24542-4 0  9994,2 55303  69.9993 119.4539 0003197 268.6430  91.4362 14.98334257 18600,6950.18,96.107,574.267,569.823,0.0
55303.0,STARLINK-5322,PAYLOAD,2023-05-15 16:05:55,14.98330546,0.0003231,69.9993,118.7803,269.5965,90.4824,2.9793e-06,-5.7e-07,0.0,0 STARLINK-5322,1 55303U 23010AL  23135.67078057 -.00000057  00000-0  29793-5 0  9994,2 55303  69.9993 118.7803 0003231 269.5965  90.4824 14.98330546 18641,6950.191,96.107,574.302,569.811,0.0
55303.0,STARLINK-5322,PAYLOAD,2023-05-16 06:31:08,14.98327127,0.0003183,69.9993,117.2656,269.1243,90.9551,2.1662e-05,1.65e-06,0.0,0 STARLINK-5322,1 55303U 23010AL  23136.27162284  .00000165  00000-0  21662-4 0  9992,2 55303  69.9993 117.2656 0003183 269.1243  90.9551 14.98327127 18432,6950.202,96.107,574.279,569.855,0.0
55303.0,STARLINK-5322,PAYLOAD,2023-05-16 08:07:16,14.98327487,0.0003175,69.9993,117.0973,269.1395,90.94,2.5292e-05,2.09e-06,0.0,0 STARLINK-5322,1 55303U 23010AL  23136.33838260  .00000209  00000-0  25292-4 0  9995,2 55303  69.9993 117.0973 0003175 269.1395  90.9400 14.98327487 18747,6950.201,96.107,574.272,569.859,0.0
55303.0,STARLINK-5322,PAYLOAD,2023-05-16 16:07:56,14.98329324,0.0003197,69.9994,116.2556,269.4694,90.6099,1.6189e-05,1e-06,0.0,0 STARLINK-5322,1 55303U 23010AL  23136.67218169  .00000100  00000-0  16189-4 0  9997,2 55303  69.9994 116.2556 0003197 269.4694  90.6099 14.98329324 18793,6950.195,96.107,574.282,569.838,0.0
